HAWK-2A                 
1 47505U 21006CW  26068.67946547  .00008113  00000+0  25431-3 0  9990
2 47505  97.2459 115.6184 0006450 187.1463 172.9689 15.33304498284242
STARLINK-30431          
1 57852U 23141N   26068.82674254  .00000212  00000+0  19283-4 0  9999
2 57852  53.1592 283.1577 0000966 110.9615 249.1489 15.30189985140349
